[Satellite]
VERSION=1.1
NAME=ONEWEB J
NICKNAME=ONEWEB J
TLE1=1 45139U 20008J   20067.25001157 -.00001367  00000-0 -45037-4 0  9990
TLE2=2 45139  87.4060 154.2570 0021769 181.3357 174.7572 15.32284012  5417
STATUS=0
